{"type": "FeatureCollection", "features": [ {"type": "Feature", "properties": {"norad_id": 36402, "name": "COSMOS 2460 (732)", "group": "gnss", "lat": -5.561377683765053, "lon": -41.544891170522924, "alt_km": 19130.093281234247, "timestamp": "2025-12-05T19:30:25.807492+00:00", "meta": {"OBJECT_NAME": "COSMOS 2460 (732)", "OBJECT_ID": "2010-007C", "EPOCH": "2025-12-01T05:49:09.827040", "MEAN_MOTION": 2.13106053, "ECCENTRICITY": 0.00028009, "INCLINATION": 65.536, "RA_OF_ASC_NODE": 321.162, "ARG_OF_PERICENTER": 269.9918, "MEAN_ANOMALY": 177.6167, "EPHEMERIS_TYPE": 0, "CLASSIFICATION_TYPE": "U", "NORAD_CAT_ID": 36402, "ELEMENT_SET_NO": 999, "REV_AT_EPOCH": 12251, "BSTAR": 0, "MEAN_MOTION_DOT": -2.6e-07, "MEAN_MOTION_DDOT": 0}, "tle": {"line1": "1 36402U 10007C   25335.24247485 -.00000026  00000+0  00000+0 0  9994", "line2": "2 36402  65.5360 321.1620 0002800 269.9918 177.6167  2.13106053122518"}}, "geometry": {"type": "Point", "coordinates": [-41.544891170522924, -5.561377683765053]}}, {"type": "Feature", "properties": {"norad_id": 36585, "name": "GPS BIIF-1  (PRN 25)", "group": "gnss", "lat": -33.63857910692366, "lon": 64.92146910331238, "alt_km": 20496.68710352933, "timestamp": "2025-12-05T19:30:25.807504+00:00", "meta": {"OBJECT_NAME": "GPS BIIF-1  (PRN 25)", "OBJECT_ID": "2010-022A", "EPOCH": "2025-12-04T06:16:58.952352", "MEAN_MOTION": 2.00552666, "ECCENTRICITY": 0.0125761, "INCLINATION": 54.3017, "RA_OF_ASC_NODE": 216.4159, "ARG_OF_PERICENTER": 64.9818, "MEAN_ANOMALY": 117.6828, "EPHEMERIS_TYPE": 0, "CLASSIFICATION_TYPE": "U", "NORAD_CAT_ID": 36585, "ELEMENT_SET_NO": 999, "REV_AT_EPOCH": 11368, "BSTAR": 0, "MEAN_MOTION_DOT": 7e-07, "MEAN_MOTION_DDOT": 0}, "tle": {"line1": "1 36585U 10022A   25338.26179343  .00000070  00000+0  00000+0 0  9993", "line2": "2 36585  54.3017 216.4159 0125761  64.9818 117.6828  2.00552666113689"}}, "geometry": {"type": "Point", "coordinates": [64.92146910331238, -33.63857910692366]}}, {"type": "Feature", "properties": {"norad_id": 36828, "name": "BEIDOU-2 IGSO-1 (C06)", "group": "gnss", "lat": -37.676962619549805, "lon": 130.88532129042707, "alt_km": 35808.05437322809, "timestamp": "2025-12-05T19:30:25.807516+00:00", "meta": {"OBJECT_NAME": "BEIDOU-2 IGSO-1 (C06)", "OBJECT_ID": "2010-036A", "EPOCH": "2025-12-04T10:48:55.401408", "MEAN_MOTION": 1.0027836, "ECCENTRICITY": 0.0051251, "INCLINATION": 54.2839, "RA_OF_ASC_NODE": 164.7233, "ARG_OF_PERICENTER": 215.778, "MEAN_ANOMALY": 323.0243, "EPHEMERIS_TYPE": 0, "CLASSIFICATION_TYPE": "U", "NORAD_CAT_ID": 36828, "ELEMENT_SET_NO": 999, "REV_AT_EPOCH": 5614, "BSTAR": 0, "MEAN_MOTION_DOT": -3.3e-07, "MEAN_MOTION_DDOT": 0}, "tle": {"line1": "1 36828U 10036A   25338.45064122 -.00000033  00000+0  00000+0 0  9997", "line2": "2 36828  54.2839 164.7233 0051251 215.7780 323.0243  1.00278360 56140"}}, "geometry": {"type": "Point", "coordinates": [130.88532129042707, -37.676962619549805]}}, {"type": "Feature", "properties": {"norad_id": 37210, "name": "BEIDOU-2 G4 (C04)", "group": "gnss", "lat": 3.1348767559074746, "lon": 167.41828955170357, "alt_km": 35787.09341886973, "timestamp": "2025-12-05T19:30:25.807528+00:00", "meta": {"OBJECT_NAME": "BEIDOU-2 G4 (C04)", "OBJECT_ID": "2010-057A", "EPOCH": "2025-12-05T05:53:56.141952", "MEAN_MOTION": 1.00271299, "ECCENTRICITY": 0.00109588, "INCLINATION": 3.1649, "RA_OF_ASC_NODE": 69.9566, "ARG_OF_PERICENTER": 189.1211, "MEAN_ANOMALY": 63.7832, "EPHEMERIS_TYPE": 0, "CLASSIFICATION_TYPE": "U", "NORAD_CAT_ID": 37210, "ELEMENT_SET_NO": 999, "REV_AT_EPOCH": 5534, "BSTAR": 0, "MEAN_MOTION_DOT": -1.01e-06, "MEAN_MOTION_DDOT": 0}, "tle": {"line1": "1 37210U 10057A   25339.24578868 -.00000101  00000+0  00000+0 0  9997", "line2": "2 37210   3.1649  69.9566 0010958 189.1211  63.7832  1.00271299 55342"}}, "geometry": {"type": "Point", "coordinates": [167.41828955170357, 3.1348767559074746]}}, {"type": "Feature", "properties": {"norad_id": 37256, "name": "BEIDOU-2 IGSO-2 (C07)", "group": "gnss", "lat": -15.006333102785565, "lon": 108.19475485934585, "alt_km": 35584.53731831912, "timestamp": "2025-12-05T19:30:25.807540+00:00", "meta": {"OBJECT_NAME": "BEIDOU-2 IGSO-2 (C07)", "OBJECT_ID": "2010-068A", "EPOCH": "2025-12-03T17:22:36.030432", "MEAN_MOTION": 1.0028871, "ECCENTRICITY": 0.00492335, "INCLINATION": 47.9043, "RA_OF_ASC_NODE": 274.2613, "ARG_OF_PERICENTER": 216.1442, "MEAN_ANOMALY": 310.2369, "EPHEMERIS_TYPE": 0, "CLASSIFICATION_TYPE": "U", "NORAD_CAT_ID": 37256, "ELEMENT_SET_NO": 999, "REV_AT_EPOCH": 5483, "BSTAR": 0, "MEAN_MOTION_DOT": -2.25e-06, "MEAN_MOTION_DDOT": 0}, "tle": {"line1": "1 37256U 10068A   25337.72402813 -.00000225  00000+0  00000+0 0  9993", "line2": "2 37256  47.9043 274.2613 0049233 216.1442 310.2369  1.00288710 54839"}}, "geometry": {"type": "Point", "coordinates": [108.19475485934585, -15.006333102785565]}}, {"type": "Feature", "properties": {"norad_id": 37384, "name": "BEIDOU-2 IGSO-3 (C08)", "group": "gnss", "lat": 57.60354462502271, "lon": 98.35198376353718, "alt_km": 35840.768463328255, "timestamp": "2025-12-05T19:30:25.807553+00:00", "meta": {"OBJECT_NAME": "BEIDOU-2 IGSO-3 (C08)", "OBJECT_ID": "2011-013A", "EPOCH": "2025-12-03T14:52:09.520896", "MEAN_MOTION": 1.00272128, "ECCENTRICITY": 0.00353922, "INCLINATION": 62.1308, "RA_OF_ASC_NODE": 42.005, "ARG_OF_PERICENTER": 186.5359, "MEAN_ANOMALY": 174.9093, "EPHEMERIS_TYPE": 0, "CLASSIFICATION_TYPE": "U", "NORAD_CAT_ID": 37384, "ELEMENT_SET_NO": 999, "REV_AT_EPOCH": 5370, "BSTAR": 0, "MEAN_MOTION_DOT": -1.99e-06, "MEAN_MOTION_DDOT": 0}, "tle": {"line1": "1 37384U 11013A   25337.61955464 -.00000199  00000+0  00000+0 0  9999", "line2": "2 37384  62.1308  42.0050 0035392 186.5359 174.9093  1.00272128 53708"}}, "geometry": {"type": "Point", "coordinates": [98.35198376353718, 57.60354462502271]}}, {"type": "Feature", "properties": {"norad_id": 37605, "name": "GSAT-8 (GAGAN/PRN 127)", "group": "gnss", "lat": -0.5749042706835874, "lon": 62.600231114891685, "alt_km": 35821.91445785432, "timestamp": "2025-12-05T19:30:25.807565+00:00", "meta": {"OBJECT_NAME": "GSAT-8 (GAGAN/PRN 127)", "OBJECT_ID": "2011-022A", "EPOCH": "2025-12-05T01:58:26.208192", "MEAN_MOTION": 1.00273323, "ECCENTRICITY": 0.00090862, "INCLINATION": 1.6286, "RA_OF_ASC_NODE": 84.2731, "ARG_OF_PERICENTER": 178.0576, "MEAN_ANOMALY": 256.5166, "EPHEMERIS_TYPE": 0, "CLASSIFICATION_TYPE": "U", "NORAD_CAT_ID": 37605, "ELEMENT_SET_NO": 999, "REV_AT_EPOCH": 5127, "BSTAR": 0, "MEAN_MOTION_DOT": 9.6e-07, "MEAN_MOTION_DDOT": 0}, "tle": {"line1": "1 37605U 11022A   25339.08224778  .00000096  00000+0  00000+0 0  9990", "line2": "2 37605   1.6286  84.2731 0009086 178.0576 256.5166  1.00273323 51275"}}, "geometry": {"type": "Point", "coordinates": [62.600231114891685, -0.5749042706835874]}}, {"type": "Feature", "properties": {"norad_id": 37763, "name": "BEIDOU-2 IGSO-4 (C09)", "group": "gnss", "lat": -47.17972623899278, "lon": 117.11678191159065, "alt_km": 35519.89976952421, "timestamp": "2025-12-05T19:30:25.807578+00:00", "meta": {"OBJECT_NAME": "BEIDOU-2 IGSO-4 (C09)", "OBJECT_ID": "2011-038A", "EPOCH": "2025-12-01T12:32:09.960864", "MEAN_MOTION": 1.00284074, "ECCENTRICITY": 0.01487808, "INCLINATION": 54.5808, "RA_OF_ASC_NODE": 167.4476, "ARG_OF_PERICENTER": 230.2031, "MEAN_ANOMALY": 315.0387, "EPHEMERIS_TYPE": 0, "CLASSIFICATION_TYPE": "U", "NORAD_CAT_ID": 37763, "ELEMENT_SET_NO": 999, "REV_AT_EPOCH": 5266, "BSTAR": 0, "MEAN_MOTION_DOT": 1.01e-06, "MEAN_MOTION_DDOT": 0}, "tle": {"line1": "1 37763U 11038A   25335.52233751  .00000101  00000+0  00000+0 0  9995", "line2": "2 37763  54.5808 167.4476 0148780 230.2031 315.0387  1.00284074 52664"}}, "geometry": {"type": "Point", "coordinates": [117.11678191159065, -47.17972623899278]}}, {"type": "Feature", "properties": {"norad_id": 37846, "name": "GSAT0101 (GALILEO-PFM)", "group": "gnss", "lat": -24.908769435203286, "lon": -30.519858798053175, "alt_km": 23217.459457996003, "timestamp": "2025-12-05T19:30:25.807592+00:00", "meta": {"OBJECT_NAME": "GSAT0101 (GALILEO-PFM)", "OBJECT_ID": "2011-060A", "EPOCH": "2025-12-04T02:27:04.519296", "MEAN_MOTION": 1.70475494, "ECCENTRICITY": 0.00028233, "INCLINATION": 57.0547, "RA_OF_ASC_NODE": 347.0545, "ARG_OF_PERICENTER": 310.6019, "MEAN_ANOMALY": 49.4066, "EPHEMERIS_TYPE": 0, "CLASSIFICATION_TYPE": "U", "NORAD_CAT_ID": 37846, "ELEMENT_SET_NO": 999, "REV_AT_EPOCH": 8779, "BSTAR": 0, "MEAN_MOTION_DOT": -7e-07, "MEAN_MOTION_DDOT": 0}, "tle": {"line1": "1 37846U 11060A   25338.10213564 -.00000070  00000+0  00000+0 0  9995", "line2": "2 37846  57.0547 347.0545 0002823 310.6019  49.4066  1.70475494 87792"}}, "geometry": {"type": "Point", "coordinates": [-30.519858798053175, -24.908769435203286]}}, {"type": "Feature", "properties": {"norad_id": 37847, "name": "GSAT0102 (GALILEO-FM2)", "group": "gnss", "lat": 12.845546875083295, "lon": -4.484183443174332, "alt_km": 23215.303110330562, "timestamp": "2025-12-05T19:30:25.807604+00:00", "meta": {"OBJECT_NAME": "GSAT0102 (GALILEO-FM2)", "OBJECT_ID": "2011-060B", "EPOCH": "2025-12-05T04:42:38.564352", "MEAN_MOTION": 1.70475694, "ECCENTRICITY": 0.00048427, "INCLINATION": 57.0552, "RA_OF_ASC_NODE": 347.0252, "ARG_OF_PERICENTER": 307.1958, "MEAN_ANOMALY": 49.7725, "EPHEMERIS_TYPE": 0, "CLASSIFICATION_TYPE": "U", "NORAD_CAT_ID": 37847, "ELEMENT_SET_NO": 999, "REV_AT_EPOCH": 8781, "BSTAR": 0, "MEAN_MOTION_DOT": -7.6e-07, "MEAN_MOTION_DDOT": 0}, "tle": {"line1": "1 37847U 11060B   25339.19627968 -.00000076  00000+0  00000+0 0  9999", "line2": "2 37847  57.0552 347.0252 0004842 307.1958  49.7725  1.70475694 87810"}}, "geometry": {"type": "Point", "coordinates": [-4.484183443174332, 12.845546875083295]}}]}